Person,oa11,Address1,Address2,Address3,Town,County,Postcode
A,E00067939,1 Leamington Close,,,DERBY,,DE23 6HF
A,E00067939,1 Livingstone Road,,,DERBY,,DE23 6PR
A,E00067939,10 Palmerston Street,,,DERBY,,DE23 6PE
A,E00067939,100 Fairfield Road,,,DERBY,,DE23 6PH
A,E00067939,102 Fairfield Road,,,DERBY,,DE23 6PH
A,E00067939,104 Fairfield Road,,,DERBY,,DE23 6PH
A,E00067939,108 Fairfield Road,,,DERBY,,DE23 6PH
A,E00067939,11 Leamington Close,,,DERBY,,DE23 6HF
A,E00067939,11 Livingstone Road,,,DERBY,,DE23 6PR
A,E00067939,11 Palmerston Street,,,DERBY,,DE23 6PE
A,E00067939,110 Fairfield Road,,,DERBY,,DE23 6PH
A,E00067939,112 Fairfield Road,,,DERBY,,DE23 6PH
A,E00067939,114 Fairfield Road,,,DERBY,,DE23 6PH
A,E00067939,12 Palmerston Street,,,DERBY,,DE23 6PE
A,E00067939,13 Leamington Close,,,DERBY,,DE23 6HF
A,E00067939,13 Livingstone Road,,,DERBY,,DE23 6PR
A,E00067939,13 Palmerston Street,,,DERBY,,DE23 6PE
A,E00067939,14 Livingstone Road,,,DERBY,,DE23 6PR
A,E00067939,14 Palmerston Street,,,DERBY,,DE23 6PE
A,E00067939,15 Leamington Close,,,DERBY,,DE23 6HF
B,E00068011,10 Clifford Street,,,DERBY,,DE24 8WL
B,E00068011,10 Taylor Street,,,DERBY,,DE24 8WP
B,E00068011,11 Clifford Street,,,DERBY,,DE24 8WL
B,E00068011,11 Dickinson Street,,,DERBY,,DE24 8WJ
B,E00068011,12 Clifford Street,,,DERBY,,DE24 8WL
B,E00068011,12 Taylor Street,,,DERBY,,DE24 8WP
B,E00068011,13 Clifford Street,,,DERBY,,DE24 8WL
B,E00068011,13 Dickinson Street,,,DERBY,,DE24 8WJ
B,E00068011,14 Clifford Street,,,DERBY,,DE24 8WL
B,E00068011,14 Taylor Street,,,DERBY,,DE24 8WP
B,E00068011,14 Warwick Street,,,DERBY,,DE24 8WN
B,E00068011,15 Clifford Street,,,DERBY,,DE24 8WL
B,E00068011,15 Dickinson Street,,,DERBY,,DE24 8WJ
B,E00068011,16 Clifford Street,,,DERBY,,DE24 8WL
B,E00068011,16 Taylor Street,,,DERBY,,DE24 8WP
B,E00068011,16 Warwick Street,,,DERBY,,DE24 8WN
B,E00068011,17 Clifford Street,,,DERBY,,DE24 8WL
B,E00068011,17 Dickinson Street,,,DERBY,,DE24 8WJ
B,E00068011,18 Clifford Street,,,DERBY,,DE24 8WL
B,E00068011,18 Taylor Street,,,DERBY,,DE24 8WP
C,E00068041,100 Carlton Walk,Alvaston,,DERBY,,DE24 8HB
C,E00068041,101 Carlton Walk,Alvaston,,DERBY,,DE24 8HB
C,E00068041,102 Carlton Walk,Alvaston,,DERBY,,DE24 8HB
C,E00068041,103 Carlton Walk,Alvaston,,DERBY,,DE24 8HB
C,E00068041,104 Carlton Walk,Alvaston,,DERBY,,DE24 8HB
C,E00068041,105 Carlton Walk,Alvaston,,DERBY,,DE24 8HB
C,E00068041,106 Carlton Walk,Alvaston,,DERBY,,DE24 8HB
C,E00068041,107 Carlton Walk,Alvaston,,DERBY,,DE24 8HB
C,E00068041,108 Carlton Walk,Alvaston,,DERBY,,DE24 8HB
C,E00068041,109 Carlton Walk,Alvaston,,DERBY,,DE24 8HB
C,E00068041,11 Patterdale Road,Alvaston,,DERBY,,DE24 8FE
C,E00068041,110 Carlton Walk,Alvaston,,DERBY,,DE24 8HB
C,E00068041,111 Carlton Walk,Alvaston,,DERBY,,DE24 8HB
C,E00068041,112 Quintyn Road,Alvaston,,DERBY,,DE24 8GY
C,E00068041,113 Quintyn Road,Alvaston,,DERBY,,DE24 8GY
C,E00068041,116 Quintyn Road,Alvaston,,DERBY,,DE24 8GY
C,E00068041,117 Quintyn Road,Alvaston,,DERBY,,DE24 8GY
C,E00068041,119 Quintyn Road,Alvaston,,DERBY,,DE24 8GY
C,E00068041,12 Patterdale Road,Alvaston,,DERBY,,DE24 8FE
C,E00068041,120 Quintyn Road,Alvaston,,DERBY,,DE24 8GY
D,E00068042,10 Chambers Street,,,DERBY,,DE24 8TH
D,E00068042,11 Chambers Street,,,DERBY,,DE24 8TJ
D,E00068042,12 Chambers Street,,,DERBY,,DE24 8TH
D,E00068042,13 Chambers Street,,,DERBY,,DE24 8TJ
D,E00068042,14 Chambers Street,,,DERBY,,DE24 8TH
D,E00068042,15 Chambers Street,,,DERBY,,DE24 8TJ
D,E00068042,16 Chambers Street,,,DERBY,,DE24 8TH
D,E00068042,17 Chambers Street,,,DERBY,,DE24 8TJ
D,E00068042,18 Chambers Street,,,DERBY,,DE24 8TH
D,E00068042,19 Chambers Street,,,DERBY,,DE24 8TJ
D,E00068042,2 Chambers Street,,,DERBY,,DE24 8TH
D,E00068042,20 Chambers Street,,,DERBY,,DE24 8TH
D,E00068042,21 Chambers Street,,,DERBY,,DE24 8TJ
D,E00068042,22 Chambers Street,,,DERBY,,DE24 8TH
D,E00068042,23 Chambers Street,,,DERBY,,DE24 8TJ
D,E00068042,24 Chambers Street,,,DERBY,,DE24 8TH
D,E00068042,25 Chambers Street,,,DERBY,,DE24 8TJ
D,E00068042,26 Chambers Street,,,DERBY,,DE24 8TH
D,E00068042,27 Chambers Street,,,DERBY,,DE24 8TJ
D,E00068042,28 Chambers Street,,,DERBY,,DE24 8TH
E,E00068100,1 Rutland Street,,,DERBY,,DE23 8PQ
E,E00068100,100 Princes Street,,,DERBY,,DE23 8NS
E,E00068100,100a Princes Street,,,DERBY,,DE23 8NS
E,E00068100,100b Princes Street,,,DERBY,,DE23 8NS
E,E00068100,101 Princes Street,,,DERBY,,DE23 8NS
E,E00068100,102 Pear Tree Street,,,DERBY,,DE23 8PN
E,E00068100,103 Princes Street,,,DERBY,,DE23 8NS
E,E00068100,104 Pear Tree Street,,,DERBY,,DE23 8PN
E,E00068100,105 Princes Street,,,DERBY,,DE23 8NS
E,E00068100,106 Pear Tree Street,,,DERBY,,DE23 8PN
E,E00068100,108 Pear Tree Street,,,DERBY,,DE23 8PN
E,E00068100,11 Rutland Street,,,DERBY,,DE23 8PQ
E,E00068100,110 Pear Tree Street,,,DERBY,,DE23 8PN
E,E00068100,112 Pear Tree Street,,,DERBY,,DE23 8PN
E,E00068100,114 Pear Tree Street,,,DERBY,,DE23 8PN
E,E00068100,116 Pear Tree Street,,,DERBY,,DE23 8PN
E,E00068100,118 Pear Tree Street,,,DERBY,,DE23 8PN
E,E00068100,120 Pear Tree Street,,,DERBY,,DE23 8PN
E,E00068100,13 Rutland Street,,,DERBY,,DE23 8PQ
E,E00068100,14 Rutland Street,,,DERBY,,DE23 8PQ
F,E00068187,1 Berwick Close,Alvaston,,DERBY,,DE24 0JB
F,E00068187,1 Border Crescent,Alvaston,,DERBY,,DE24 0HU
F,E00068187,1 Denstone Drive,Alvaston,,DERBY,,DE24 0HZ
F,E00068187,1 Epworth Drive,Alvaston,,DERBY,,DE24 0JA
F,E00068187,10 Berwick Close,Alvaston,,DERBY,,DE24 0JB
F,E00068187,10 Border Crescent,Alvaston,,DERBY,,DE24 0HU
F,E00068187,10 Epworth Drive,Alvaston,,DERBY,,DE24 0JA
F,E00068187,10 Field View Close,Alvaston,,DERBY,,DE24 0SE
F,E00068187,11 Berwick Close,Alvaston,,DERBY,,DE24 0JB
F,E00068187,11 Border Crescent,Alvaston,,DERBY,,DE24 0HU
F,E00068187,11 Denstone Drive,Alvaston,,DERBY,,DE24 0HZ
F,E00068187,11 Epworth Drive,Alvaston,,DERBY,,DE24 0JA
F,E00068187,12 Berwick Close,Alvaston,,DERBY,,DE24 0JB
F,E00068187,12 Border Crescent,Alvaston,,DERBY,,DE24 0HU
F,E00068187,12 Epworth Drive,Alvaston,,DERBY,,DE24 0JA
F,E00068187,14 Berwick Close,Alvaston,,DERBY,,DE24 0JB
F,E00068187,14 Border Crescent,Alvaston,,DERBY,,DE24 0HU
F,E00068187,14 Epworth Drive,Alvaston,,DERBY,,DE24 0JA
F,E00068187,15 Berwick Close,Alvaston,,DERBY,,DE24 0JB
F,E00068187,15 Border Crescent,Alvaston,,DERBY,,DE24 0HU
G,E00068220,1 Ashworth Walk,Chaddesden,,DERBY,,DE21 6QG
G,E00068220,1 Highfield Cottages,Highfield Lane,Chaddesden,DERBY,,DE21 6PR
G,E00068220,1 Highfield Mews,Highfield Lane,,DERBY,,DE21 6YL
G,E00068220,1 John Berrysford Close,Chaddesden,,DERBY,,DE21 6QH
G,E00068220,10 Ashworth Walk,Chaddesden,,DERBY,,DE21 6QG
G,E00068220,10 Highfield Cottages,Highfield Lane,Chaddesden,DERBY,,DE21 6PR
G,E00068220,10 John Berrysford Close,Chaddesden,,DERBY,,DE21 6QH
G,E00068220,101 Ashworth Avenue,Chaddesden,,DERBY,,DE21 6RQ
G,E00068220,103 Ashworth Avenue,Chaddesden,,DERBY,,DE21 6RQ
G,E00068220,11 Highfield Cottages,Highfield Lane,Chaddesden,DERBY,,DE21 6PR
G,E00068220,11 John Berrysford Close,Chaddesden,,DERBY,,DE21 6QH
G,E00068220,12 Ashworth Walk,Chaddesden,,DERBY,,DE21 6QG
G,E00068220,12 Highfield Cottages,Highfield Lane,Chaddesden,DERBY,,DE21 6PR
G,E00068220,12 John Berrysford Close,Chaddesden,,DERBY,,DE21 6QH
G,E00068220,13 Highfield Cottages,Highfield Lane,Chaddesden,DERBY,,DE21 6PR
G,E00068220,13 John Berrysford Close,Chaddesden,,DERBY,,DE21 6QH
G,E00068220,14 Highfield Cottages,Highfield Lane,Chaddesden,DERBY,,DE21 6PR
G,E00068220,14 John Berrysford Close,Chaddesden,,DERBY,,DE21 6QH
G,E00068220,15 Highfield Cottages,Highfield Lane,Chaddesden,DERBY,,DE21 6PR
G,E00068220,15 John Berrysford Close,Chaddesden,,DERBY,,DE21 6QH
H,E00068282,1 Bank View Road,,,DERBY,,DE22 1EL
H,E00068282,1 Darley Park Drive,,,DERBY,,DE22 1EN
H,E00068282,1 Windley Crescent,Darley Abbey,,DERBY,,DE22 1BZ
H,E00068282,10 Bank View Road,,,DERBY,,DE22 1EJ
H,E00068282,10 Windley Crescent,Darley Abbey,,DERBY,,DE22 1BZ
H,E00068282,11 Bank View Road,,,DERBY,,DE22 1EL
H,E00068282,11 Darley Park Drive,,,DERBY,,DE22 1EN
H,E00068282,12 Bank View Road,,,DERBY,,DE22 1EJ
H,E00068282,12 Windley Crescent,Darley Abbey,,DERBY,,DE22 1BZ
H,E00068282,13 Darley Park Drive,,,DERBY,,DE22 1EN
H,E00068282,14 Bank View Road,,,DERBY,,DE22 1EJ
H,E00068282,14 Windley Crescent,Darley Abbey,,DERBY,,DE22 1BZ
H,E00068282,15 Bank View Road,,,DERBY,,DE22 1EL
H,E00068282,16 Bank View Road,,,DERBY,,DE22 1EJ
H,E00068282,16 Windley Crescent,Darley Abbey,,DERBY,,DE22 1BZ
H,E00068282,17 Bank View Road,,,DERBY,,DE22 1EL
H,E00068282,17 Windley Crescent,Darley Abbey,,DERBY,,DE22 1BZ
H,E00068282,18 Bank View Road,,,DERBY,,DE22 1EJ
H,E00068282,18 Windley Crescent,Darley Abbey,,DERBY,,DE22 1BZ
H,E00068282,19 Bank View Road,,,DERBY,,DE22 1EL
I,E00068341,1 Radnor Street,,,DERBY,,DE21 6EA
I,E00068341,10 Radnor Street,,,DERBY,,DE21 6DZ
I,E00068341,100 Beaufort Street,,,DERBY,,DE21 6AZ
I,E00068341,102 Beaufort Street,,,DERBY,,DE21 6AZ
I,E00068341,104 Beaufort Street,,,DERBY,,DE21 6AZ
I,E00068341,106 Beaufort Street,,,DERBY,,DE21 6AZ
I,E00068341,108 Beaufort Street,,,DERBY,,DE21 6AZ
I,E00068341,11 Radnor Street,,,DERBY,,DE21 6EA
I,E00068341,110 Beaufort Street,,,DERBY,,DE21 6AZ
I,E00068341,112 Beaufort Street,,,DERBY,,DE21 6AZ
I,E00068341,114 Beaufort Street,,,DERBY,,DE21 6AZ
I,E00068341,116 Beaufort Street,,,DERBY,,DE21 6AZ
I,E00068341,118 Beaufort Street,,,DERBY,,DE21 6AZ
I,E00068341,12 Radnor Street,,,DERBY,,DE21 6DZ
I,E00068341,120 Beaufort Street,,,DERBY,,DE21 6AZ
I,E00068341,122 Beaufort Street,,,DERBY,,DE21 6AZ
I,E00068341,124 Beaufort Street,,,DERBY,,DE21 6AZ
I,E00068341,126 Beaufort Street,,,DERBY,,DE21 6AZ
I,E00068341,13 Radnor Street,,,DERBY,,DE21 6EA
I,E00068341,14 Radnor Street,,,DERBY,,DE21 6DZ
J,E00068399,1 Hendon Way,,,DERBY,,DE22 4BZ
J,E00068399,1 Seymour Close,,,DERBY,,DE22 3FG
J,E00068399,1 Thurcroft Close,,,DERBY,,DE22 3AR
J,E00068399,10 Brentford Drive,,,DERBY,,DE22 4BN
J,E00068399,10 Greenwich Drive North,,,DERBY,,DE22 4AB
J,E00068399,10 Hanwell Way,,,DERBY,,DE22 4AD
J,E00068399,10 Hendon Way,,,DERBY,,DE22 4BZ
J,E00068399,10 Seymour Close,,,DERBY,,DE22 3FG
J,E00068399,10 Thurcroft Close,,,DERBY,,DE22 3AR
J,E00068399,11 Brentford Drive,,,DERBY,,DE22 4BN
J,E00068399,11 Hendon Way,,,DERBY,,DE22 4BZ
J,E00068399,11 Seymour Close,,,DERBY,,DE22 3FG
J,E00068399,11 Thurcroft Close,,,DERBY,,DE22 3AR
J,E00068399,12 Brentford Drive,,,DERBY,,DE22 4BN
J,E00068399,12 Greenwich Drive North,,,DERBY,,DE22 4AB
J,E00068399,12 Hanwell Way,,,DERBY,,DE22 4AD
J,E00068399,12 Hendon Way,,,DERBY,,DE22 4BZ
J,E00068399,12 Seymour Close,,,DERBY,,DE22 3FG
J,E00068399,12 Thurcroft Close,,,DERBY,,DE22 3AR
J,E00068399,12a Seymour Close,,,DERBY,,DE22 3FG
